{"type": "FeatureCollection", "features": [ {"type": "Feature", "properties": {"norad_id": 66609, "name": "STARLINK-36034", "group": "last-30-days", "lat": -3.9507266662806586, "lon": -163.62509739922515, "alt_km": 415.3595948128268, "timestamp": "2025-12-11T08:58:25.855155+00:00", "meta": {"OBJECT_NAME": "STARLINK-36034", "OBJECT_ID": "2025-270X", "EPOCH": "2025-12-11T04:00:01.998720", "MEAN_MOTION": 15.5059205, "ECCENTRICITY": 0.0001908, "INCLINATION": 42.9998, "RA_OF_ASC_NODE": 201.8376, "ARG_OF_PERICENTER": 262.813, "MEAN_ANOMALY": 13.3438, "EPHEMERIS_TYPE": 0, "CLASSIFICATION_TYPE": "U", "NORAD_CAT_ID": 66609, "ELEMENT_SET_NO": 999, "REV_AT_EPOCH": 398, "BSTAR": -0.0012962, "MEAN_MOTION_DOT": -0.00075692, "MEAN_MOTION_DDOT": 0}, "tle": {"line1": "1 66609U 25270X   25345.16668980 -.00075692  00000+0 -12962-2 0  9998", "line2": "2 66609  42.9998 201.8376 0001908 262.8130  13.3438 15.50592050  3981"}}, "geometry": {"type": "Point", "coordinates": [-163.62509739922515, -3.9507266662806586]}}, {"type": "Feature", "properties": {"norad_id": 66610, "name": "STARLINK-35680", "group": "last-30-days", "lat": -2.646602120226405, "lon": -162.2237677370649, "alt_km": 415.23017070897276, "timestamp": "2025-12-11T08:58:25.855166+00:00", "meta": {"OBJECT_NAME": "STARLINK-35680", "OBJECT_ID": "2025-270Y", "EPOCH": "2025-12-11T04:00:01.998720", "MEAN_MOTION": 15.5062671, "ECCENTRICITY": 0.0002043, "INCLINATION": 43, "RA_OF_ASC_NODE": 201.832, "ARG_OF_PERICENTER": 261.1618, "MEAN_ANOMALY": 16.8904, "EPHEMERIS_TYPE": 0, "CLASSIFICATION_TYPE": "U", "NORAD_CAT_ID": 66610, "ELEMENT_SET_NO": 999, "REV_AT_EPOCH": 425, "BSTAR": -0.0019719, "MEAN_MOTION_DOT": -0.00114549, "MEAN_MOTION_DDOT": 0}, "tle": {"line1": "1 66610U 25270Y   25345.16668980 -.00114549  00000+0 -19719-2 0  9992", "line2": "2 66610  43.0000 201.8320 0002043 261.1618  16.8904 15.50626710  4250"}}, "geometry": {"type": "Point", "coordinates": [-162.2237677370649, -2.646602120226405]}}, {"type": "Feature", "properties": {"norad_id": 66611, "name": "STARLINK-35583", "group": "last-30-days", "lat": -1.342391968933283, "lon": -160.82639145336282, "alt_km": 415.1646523675827, "timestamp": "2025-12-11T08:58:25.855178+00:00", "meta": {"OBJECT_NAME": "STARLINK-35583", "OBJECT_ID": "2025-270Z", "EPOCH": "2025-12-11T04:00:01.998720", "MEAN_MOTION": 15.50625611, "ECCENTRICITY": 0.0002061, "INCLINATION": 43.0001, "RA_OF_ASC_NODE": 201.827, "ARG_OF_PERICENTER": 258.9889, "MEAN_ANOMALY": 20.9779, "EPHEMERIS_TYPE": 0, "CLASSIFICATION_TYPE": "U", "NORAD_CAT_ID": 66611, "ELEMENT_SET_NO": 999, "REV_AT_EPOCH": 425, "BSTAR": -0.0019072, "MEAN_MOTION_DOT": -0.00110847, "MEAN_MOTION_DDOT": 0}, "tle": {"line1": "1 66611U 25270Z   25345.16668980 -.00110847  00000+0 -19072-2 0  9992", "line2": "2 66611  43.0001 201.8270 0002061 258.9889  20.9779 15.50625611  4255"}}, "geometry": {"type": "Point", "coordinates": [-160.82639145336282, -1.342391968933283]}}, {"type": "Feature", "properties": {"norad_id": 66612, "name": "STARLINK-36039", "group": "last-30-days", "lat": -0.04354103819541242, "lon": -159.4371104463512, "alt_km": 415.0160603144286, "timestamp": "2025-12-11T08:58:25.855189+00:00", "meta": {"OBJECT_NAME": "STARLINK-36039", "OBJECT_ID": "2025-270AA", "EPOCH": "2025-12-11T04:00:01.998720", "MEAN_MOTION": 15.50573924, "ECCENTRICITY": 0.0002115, "INCLINATION": 42.9996, "RA_OF_ASC_NODE": 201.822, "ARG_OF_PERICENTER": 259.189, "MEAN_ANOMALY": 22.6978, "EPHEMERIS_TYPE": 0, "CLASSIFICATION_TYPE": "U", "NORAD_CAT_ID": 66612, "ELEMENT_SET_NO": 999, "REV_AT_EPOCH": 414, "BSTAR": 0.00068802, "MEAN_MOTION_DOT": 0.00040223, "MEAN_MOTION_DDOT": 0}, "tle": {"line1": "1 66612U 25270AA  25345.16668980  .00040223  00000+0  68802-3 0  9997", "line2": "2 66612  42.9996 201.8220 0002115 259.1890  22.6978 15.50573924  4144"}}, "geometry": {"type": "Point", "coordinates": [-159.4371104463512, -0.04354103819541242]}}, {"type": "Feature", "properties": {"norad_id": 66613, "name": "STARLINK-36037", "group": "last-30-days", "lat": 1.271733233939149, "lon": -158.0302152000851, "alt_km": 414.91163411934394, "timestamp": "2025-12-11T08:58:25.855199+00:00", "meta": {"OBJECT_NAME": "STARLINK-36037", "OBJECT_ID": "2025-270AB", "EPOCH": "2025-12-11T04:00:01.998720", "MEAN_MOTION": 15.50627128, "ECCENTRICITY": 0.0002079, "INCLINATION": 42.9999, "RA_OF_ASC_NODE": 201.8171, "ARG_OF_PERICENTER": 259.243, "MEAN_ANOMALY": 24.5576, "EPHEMERIS_TYPE": 0, "CLASSIFICATION_TYPE": "U", "NORAD_CAT_ID": 66613, "ELEMENT_SET_NO": 999, "REV_AT_EPOCH": 414, "BSTAR": -0.0019561, "MEAN_MOTION_DOT": -0.00113647, "MEAN_MOTION_DDOT": 0}, "tle": {"line1": "1 66613U 25270AB  25345.16668980 -.00113647  00000+0 -19561-2 0  9998", "line2": "2 66613  42.9999 201.8171 0002079 259.2430  24.5576 15.50627128  4144"}}, "geometry": {"type": "Point", "coordinates": [-158.0302152000851, 1.271733233939149]}}, {"type": "Feature", "properties": {"norad_id": 66614, "name": "STARLINK-36040", "group": "last-30-days", "lat": 3.883414759262026, "lon": -155.22818233491793, "alt_km": 414.5111866899315, "timestamp": "2025-12-11T08:58:25.855209+00:00", "meta": {"OBJECT_NAME": "STARLINK-36040", "OBJECT_ID": "2025-270AC", "EPOCH": "2025-12-11T04:00:01.998720", "MEAN_MOTION": 15.50632239, "ECCENTRICITY": 0.000193, "INCLINATION": 42.9999, "RA_OF_ASC_NODE": 201.8067, "ARG_OF_PERICENTER": 263.7332, "MEAN_ANOMALY": 23.9006, "EPHEMERIS_TYPE": 0, "CLASSIFICATION_TYPE": "U", "NORAD_CAT_ID": 66614, "ELEMENT_SET_NO": 999, "REV_AT_EPOCH": 398, "BSTAR": -0.0020009, "MEAN_MOTION_DOT": -0.00116225, "MEAN_MOTION_DDOT": 0}, "tle": {"line1": "1 66614U 25270AC  25345.16668980 -.00116225  00000+0 -20009-2 0  9993", "line2": "2 66614  42.9999 201.8067 0001930 263.7332  23.9006 15.50632239  3986"}}, "geometry": {"type": "Point", "coordinates": [-155.22818233491793, 3.883414759262026]}}, {"type": "Feature", "properties": {"norad_id": 66615, "name": "STARLINK-35988", "group": "last-30-days", "lat": 2.5243988042033014, "lon": -156.6881455175775, "alt_km": 415.10842791750565, "timestamp": "2025-12-11T08:58:25.855219+00:00", "meta": {"OBJECT_NAME": "STARLINK-35988", "OBJECT_ID": "2025-270AD", "EPOCH": "2025-12-11T04:00:01.998720", "MEAN_MOTION": 15.5055943, "ECCENTRICITY": 0.0001837, "INCLINATION": 42.9998, "RA_OF_ASC_NODE": 201.8124, "ARG_OF_PERICENTER": 241.8648, "MEAN_ANOMALY": 43.8054, "EPHEMERIS_TYPE": 0, "CLASSIFICATION_TYPE": "U", "NORAD_CAT_ID": 66615, "ELEMENT_SET_NO": 999, "REV_AT_EPOCH": 398, "BSTAR": 0.00077437, "MEAN_MOTION_DOT": 0.00045319, "MEAN_MOTION_DDOT": 0}, "tle": {"line1": "1 66615U 25270AD  25345.16668980  .00045319  00000+0  77437-3 0  9995", "line2": "2 66615  42.9998 201.8124 0001837 241.8648  43.8054 15.50559430  3988"}}, "geometry": {"type": "Point", "coordinates": [-156.6881455175775, 2.5243988042033014]}}, {"type": "Feature", "properties": {"norad_id": 66616, "name": "STARLINK-35391", "group": "last-30-days", "lat": 5.187535002798222, "lon": -153.81922693602627, "alt_km": 414.4160286384531, "timestamp": "2025-12-11T08:58:25.855229+00:00", "meta": {"OBJECT_NAME": "STARLINK-35391", "OBJECT_ID": "2025-270AE", "EPOCH": "2025-12-11T04:00:01.998720", "MEAN_MOTION": 15.5063581, "ECCENTRICITY": 0.0001949, "INCLINATION": 42.9998, "RA_OF_ASC_NODE": 201.8021, "ARG_OF_PERICENTER": 261.9584, "MEAN_ANOMALY": 27.5936, "EPHEMERIS_TYPE": 0, "CLASSIFICATION_TYPE": "U", "NORAD_CAT_ID": 66616, "ELEMENT_SET_NO": 999, "REV_AT_EPOCH": 425, "BSTAR": -0.0021504, "MEAN_MOTION_DOT": -0.00124766, "MEAN_MOTION_DDOT": 0}, "tle": {"line1": "1 66616U 25270AE  25345.16668980 -.00124766  00000+0 -21504-2 0  9995", "line2": "2 66616  42.9998 201.8021 0001949 261.9584  27.5936 15.50635810  4257"}}, "geometry": {"type": "Point", "coordinates": [-153.81922693602627, 5.187535002798222]}}, {"type": "Feature", "properties": {"norad_id": 66617, "name": "STARLINK-35940", "group": "last-30-days", "lat": 7.122292842217629, "lon": -160.82728076666046, "alt_km": 399.5969898666981, "timestamp": "2025-12-11T08:58:25.855243+00:00", "meta": {"OBJECT_NAME": "STARLINK-35940", "OBJECT_ID": "2025-271A", "EPOCH": "2025-12-11T04:00:01.998720", "MEAN_MOTION": 15.56792035, "ECCENTRICITY": 0.0001045, "INCLINATION": 53.1601, "RA_OF_ASC_NODE": 194.799, "ARG_OF_PERICENTER": 105.3672, "MEAN_ANOMALY": 181.9908, "EPHEMERIS_TYPE": 0, "CLASSIFICATION_TYPE": "U", "NORAD_CAT_ID": 66617, "ELEMENT_SET_NO": 999, "REV_AT_EPOCH": 399, "BSTAR": -0.031977, "MEAN_MOTION_DOT": -0.0207862, "MEAN_MOTION_DDOT": 0}, "tle": {"line1": "1 66617U 25271A   25345.16668980 -.02078620  00000+0 -31977-1 0  9990", "line2": "2 66617  53.1601 194.7990 0001045 105.3672 181.9908 15.56792035  3997"}}, "geometry": {"type": "Point", "coordinates": [-160.82728076666046, 7.122292842217629]}}, {"type": "Feature", "properties": {"norad_id": 66618, "name": "STARLINK-35970", "group": "last-30-days", "lat": 45.10415451084642, "lon": -117.51081837532621, "alt_km": 393.1902769888229, "timestamp": "2025-12-11T08:58:25.855254+00:00", "meta": {"OBJECT_NAME": "STARLINK-35970", "OBJECT_ID": "2025-271B", "EPOCH": "2025-12-11T04:00:01.998720", "MEAN_MOTION": 15.56791957, "ECCENTRICITY": 7.97e-05, "INCLINATION": 53.1594, "RA_OF_ASC_NODE": 194.6859, "ARG_OF_PERICENTER": 96.2302, "MEAN_ANOMALY": 244.4515, "EPHEMERIS_TYPE": 0, "CLASSIFICATION_TYPE": "U", "NORAD_CAT_ID": 66618, "ELEMENT_SET_NO": 999, "REV_AT_EPOCH": 399, "BSTAR": -0.031957, "MEAN_MOTION_DOT": -0.02077299, "MEAN_MOTION_DDOT": 0}, "tle": {"line1": "1 66618U 25271B   25345.16668980 -.02077299  00000+0 -31957-1 0  9990", "line2": "2 66618  53.1594 194.6859 0000797  96.2302 244.4515 15.56791957  3994"}}, "geometry": {"type": "Point", "coordinates": [-117.51081837532621, 45.10415451084642]}}]}